{
    "links": {
        "self": "http://www.neowsapp.com/rest/v1/neo/3273524?api_key=iIulBulltgU6a56xZRHN4H3l9WmuAYTsLGpBGhQ2"
    },
    "id": "3273524",
    "neo_reference_id": "3273524",
    "name": "(2005 EO33)",
    "designation": "2005 EO33",
    "nasa_jpl_url": "http://ssd.jpl.nasa.gov/sbdb.cgi?sstr=3273524",
    "absolute_magnitude_h": 21.3,
    "estimated_diameter": {
        "kilometers": {
            "estimated_diameter_min": 0.1460679643,
            "estimated_diameter_max": 0.3266178974
        },
        "meters": {
            "estimated_diameter_min": 146.0679642714,
            "estimated_diameter_max": 326.6178974458
        },
        "miles": {
            "estimated_diameter_min": 0.090762397,
            "estimated_diameter_max": 0.2029508896
        },
        "feet": {
            "estimated_diameter_min": 479.2256199,
            "estimated_diameter_max": 1071.581062656
        }
    },
    "is_potentially_hazardous_asteroid": true,
    "close_approach_data": [
        {
            "close_approach_date": "1902-10-27",
            "close_approach_date_full": "1902-Oct-27 00:22",
            "epoch_date_close_approach": -2120081880000,
            "relative_velocity": {
                "kilometers_per_second": "12.5028551325",
                "kilometers_per_hour": "45010.2784769302",
                "miles_per_hour": "27967.6366458459"
            },
            "miss_distance": {
                "astronomical": "0.0768055066",
                "lunar": "29.8773420674",
                "kilometers": "11489940.191630942",
                "miles": "7139517.7712413196"
            },
            "orbiting_body": "Earth"
        },
        {
            "close_approach_date": "2005-02-15",
            "close_approach_date_full": "2005-Feb-15 20:53",
            "epoch_date_close_approach": 1108500780000,
            "relative_velocity": {
                "kilometers_per_second": "14.6244853385",
                "kilometers_per_hour": "52648.1472187087",
                "miles_per_hour": "32713.5112537582"
            },
            "miss_distance": {
                "astronomical": "0.0793148762",
                "lunar": "30.8534868418",
                "kilometers": "11865336.538833694",
                "miles": "7372778.2449612172"
            },
            "orbiting_body": "Earth"
        }
    ],
    "orbital_data": {
        "orbit_id": "10",
        "orbit_determination_date": "2017-04-06 09:11:22",
        "first_observation_date": "2005-03-07",
        "last_observation_date": "2005-04-02",
        "data_arc_in_days": 26,
        "observations_used": 27,
        "orbit_uncertainty": "8",
        "minimum_orbit_intersection": ".0411356",
        "jupiter_tisserand_invariant": "3.649",
        "epoch_osculation": "2453441.5",
        "eccentricity": ".5727800587084907",
        "semi_major_axis": "1.967782015942096",
        "inclination": "4.611162827004524",
        "ascending_node_longitude": "289.7459804589637",
        "orbital_period": "1008.239963570944",
        "perihelion_distance": ".8406757173252701",
        "perihelion_argument": "158.4744318176092",
        "aphelion_distance": "3.094888314558922",
        "perihelion_time": "2453378.515414518978",
        "mean_anomaly": "22.48914107000923",
        "mean_motion": ".3570578562716026",
        "equinox": "J2000",
        "orbit_class": {
            "orbit_class_type": "APO",
            "orbit_class_description": "Near-Earth asteroid orbits which cross the Earth’s orbit similar to that of 1862 Apollo",
            "orbit_class_range": "a (semi-major axis) > 1.0 AU; q (perihelion) < 1.017 AU"
        }
    },
    "is_sentry_object": false
}